ORBCOMM FM24            
1 25478U 98053D   25038.37813999  .00002694  00000+0  93814-3 0  9996
2 25478  45.0065 164.3370 0002809 252.8942 107.1598 14.37507135378761
ORBCOMM FM25            
1 25479U 98053E   25038.76434951  .00002632  00000+0  91784-3 0  9993
2 25479  45.0058 160.7638 0004328 288.0689  71.9688 14.37493403379118
ORBCOMM FM26            
1 25480U 98053F   25038.83345426  .00001933  00000+0  69829-3 0  9999
2 25480  45.0053 156.0005 0005394 316.9560  43.0865 14.36640047379040
ORBCOMM FM27            
1 25481U 98053G   25038.75379366  .00002773  00000+0  96416-3 0  9996
2 25481  45.0041 161.0544 0001975 224.9237 135.1452 14.37501948379044
ORBCOMM FM28            
1 25482U 98053H   25039.15872397  .00001825  00000+0  64751-3 0  9998
2 25482  45.0051  96.8543 0003994 335.1619  24.9036 14.37759634379952
ORBCOMM FM30            
1 25980U 99065A   25039.11593126  .00001892  00000+0  68231-3 0  9992
2 25980  45.0326 340.4505 0005880  67.0722 293.0746 14.36800173316411
ORBCOMM FM31            
1 25981U 99065B   25038.80677008  .00002001  00000+0  71969-3 0  9995
2 25981  45.0239 335.4471 0002873  82.8732 277.2442 14.36767215315398
ORBCOMM FM32            
1 25982U 99065C   25038.83637681  .00002372  00000+0  86028-3 0  9995
2 25982  45.0167 351.0100 0004570  88.6686 271.4685 14.35805182316009
